*******************************************************************************
JPL/HORIZONS                108 Hecuba (A869 GB)           2020-Jun-20 08:14:56
Rec #:     108 (+COV) Soln.date: 2020-May-20_00:58:46   # obs: 2872 (1880-2020)
 
IAU76/J2000 helio. ecliptic osc. elements (au, days, deg., period=Julian yrs):
 
  EPOCH=  2454814.5 ! 2008-Dec-14.00 (TDB)         Residual RMS= .29037
   EC= .05205106657750599  QR= 3.071031620554773   TP= 2454407.9720790209
   OM= 350.3455411986827   W=  192.2326817363056   IN= 4.247740506486391
   A= 3.239659344799364    MA= 68.71403220093346   ADIST= 3.408287069043956
   PER= 5.83119            N= .169026595           ANGMOM= .030920179
   DAN= 3.40404            DDN= 3.07449            L= 182.5456389
   B= -.899234             MOID= 2.07473993        TP= 2007-Nov-03.4720790209
 
Asteroid physical parameters (km, seconds, rotational period in hours):
   GM= n.a.                RAD= 37.749             ROTPER= 14.256
   H= 8.                   G= .150                 B-V= .855
                           ALBEDO= .148            STYP= Sl
 
ASTEROID comments: 
1: soln ref.= JPL#51, OCC=0
2: source=ORB
*******************************************************************************
 
 
*******************************************************************************
Ephemeris / WWW_USER Sat Jun 20 08:14:56 2020 Pasadena, USA      / Horizons
*******************************************************************************
Target body name: 108 Hecuba (A869 GB)            {source: JPL#51}
Center body name: Solar System Barycenter (0)     {source: DE431}
Center-site name: BODY CENTER
*******************************************************************************
Start time      : A.D. 1969-Jun-28 00:00:00.0000 TDB
Stop  time      : A.D. 2071-May-04 00:00:00.0000 TDB
Step-size       : 7200 minutes
*******************************************************************************
Center geodetic : 0.00000000,0.00000000,0.0000000 {E-lon(deg),Lat(deg),Alt(km)}
Center cylindric: 0.00000000,0.00000000,0.0000000 {E-lon(deg),Dxy(km),Dz(km)}
Center radii    : (undefined)                                                  
Small perturbers: Yes                             {source: SB431-N16}
Output units    : AU-D
Output type     : GEOMETRIC cartesian states
Output format   : 2 (position and velocity)
Reference frame : Ecliptic of J2000.0
*******************************************************************************
Initial IAU76/J2000 heliocentric ecliptic osculating elements (au, days, deg.):
  EPOCH=  2454814.5 ! 2008-Dec-14.00 (TDB)         Residual RMS= .29037        
   EC= .05205106657750599  QR= 3.071031620554773   TP= 2454407.9720790209      
   OM= 350.3455411986827   W=  192.2326817363056   IN= 4.247740506486391       
  Equivalent ICRF heliocentric equatorial cartesian coordinates (au, au/d):
   X=-7.166491533455559E-01  Y=-2.746517261501624E+00  Z=-1.447546690746003E+00
  VX= 9.346861762315447E-03 VY=-2.401966074186037E-03 VZ=-1.126107172288646E-03
Asteroid physical parameters (km, seconds, rotational period in hours):        
   GM= n.a.                RAD= 37.749             ROTPER= 14.256              
   H= 8.                   G= .150                 B-V= .855                   
                           ALBEDO= .148            STYP= Sl                    
*******************************************************************************
            JDTDB,            Calendar Date (TDB),        delta-T,                      X,                      Y,                      Z,                     VX,                     VY,                     VZ,
******************************************************************************************************************************************************************************************************************
$$SOE
2445720.500000000, A.D. 1984-Jan-21 00:00:00.0000,      54.184505, -2.734188428875192E+00,  1.296423347351418E+00,  6.516265907665393E-02, -4.302349955404242E-03, -9.224169081247326E-03, -7.390544894163228E-04,
2445725.500000000, A.D. 1984-Jan-26 00:00:00.0000,      54.184642, -2.755333561353635E+00,  1.250132509162272E+00,  6.145882220858804E-02, -4.155508776456713E-03, -9.291756724685830E-03, -7.424474029874611E-04,
2445730.500000000, A.D. 1984-Jan-31 00:00:00.0000,      54.184777, -2.775741612682998E+00,  1.203509893529529E+00,  5.773851456001679E-02, -4.007525240831270E-03, -9.356876347277202E-03, -7.456426113632358E-04,
2445735.500000000, A.D. 1984-Feb-05 00:00:00.0000,      54.184905, -2.795406987683362E+00,  1.156567895371626E+00,  5.400272744187167E-02, -3.858446074510922E-03, -9.419506195195049E-03, -7.486390143625927E-04,
2445740.500000000, A.D. 1984-Feb-10 00:00:00.0000,      54.185026, -2.814324326050424E+00,  1.109319015786857E+00,  5.025245745833895E-02, -3.708318497092315E-03, -9.479625552585611E-03, -7.514355949899183E-04,
2445745.500000000, A.D. 1984-Feb-15 00:00:00.0000,      54.185137, -2.832488504753016E+00,  1.061775856830327E+00,  4.648870608912060E-02, -3.557190193458073E-03, -9.537214754688810E-03, -7.540314201465916E-04,
2445750.500000000, A.D. 1984-Feb-20 00:00:00.0000,      54.185239, -2.849894640287399E+00,  1.013951116227577E+00,  4.271247926832601E-02, -3.405109284822576E-03, -9.592255200051200E-03, -7.564256412683779E-04,
2445755.500000000, A.D. 1984-Feb-25 00:00:00.0000,      54.185332, -2.866538090785348E+00,  9.658575820293949E-01,  3.892478696036217E-02, -3.252124299212532E-03, -9.644729361837055E-03, -7.586174948879959E-04,
2445760.500000000, A.D. 1984-Mar-01 00:00:00.0000,      54.185417, -2.882414457973345E+00,  9.175081272123240E-01,  3.512664273320208E-02, -3.098284141440751E-03, -9.694620798241019E-03, -7.606063031205873E-04,
2445765.500000000, A.D. 1984-Mar-06 00:00:00.0000,      54.185491, -2.897519588980517E+00,  8.689157042293444E-01,  3.131906332942543E-02, -2.943638062643341E-03, -9.741914162005023E-03, -7.623914740690146E-04,
2445770.500000000, A.D. 1984-Mar-11 00:00:00.0000,      54.185553, -2.911849577993325E+00,  8.200933395152170E-01,  2.750306823544149E-02, -2.788235629453493E-03, -9.786595209035766E-03, -7.639725021447454E-04,
2445775.500000000, A.D. 1984-Mar-16 00:00:00.0000,      54.185602, -2.925400767755356E+00,  7.710541279510037E-01,  2.367967924932843E-02, -2.632126692880800E-03, -9.828650806115568E-03, -7.653489683000052E-04,
2445780.500000000, A.D. 1984-Mar-21 00:00:00.0000,      54.185638, -2.938169750910912E+00,  7.218112272923044E-01,  1.984992004773898E-02, -2.475361356960447E-03, -9.868068937705959E-03, -7.665205401682389E-04,
2445785.500000000, A.D. 1984-Mar-26 00:00:00.0000,      54.185664, -2.950153371191467E+00,  6.723778525657044E-01,  1.601481575232954E-02, -2.317989947283260E-03, -9.904838711864454E-03, -7.674869721171394E-04,
2445790.500000000, A.D. 1984-Mar-31 00:00:00.0000,      54.185678, -2.961348724445023E+00,  6.227672704378810E-01,  1.217539249610368E-02, -2.160062979682824E-03, -9.938950365244129E-03, -7.682481052328706E-04,
2445795.500000000, A.D. 1984-Apr-05 00:00:00.0000,      54.185680, -2.971753159509883E+00,  5.729927935624627E-01,  8.332676989973604E-03, -2.001631129321920E-03, -9.970395266938934E-03, -7.688038672484491E-04,
2445800.500000000, A.D. 1984-Apr-10 00:00:00.0000,      54.185669, -2.981364278934402E+00,  5.230677749111169E-01,  4.487696089868874E-03, -1.842745199904585E-03, -9.999165920931356E-03, -7.691542723885106E-04,
2445805.500000000, A.D. 1984-Apr-15 00:00:00.0000,      54.185644, -2.990179939541984E+00,  4.730056020956800E-01,  6.414763649152550E-04, -1.683456092516299E-03, -1.002525596728792E-02, -7.692994210939530E-04,
2445810.500000000, A.D. 1984-Apr-20 00:00:00.0000,      54.185606, -2.998198252839342E+00,  4.228196916866524E-01, -3.204956332730729E-03, -1.523814774144177E-03, -1.004866018246170E-02, -7.692394996421052E-04,
2445815.500000000, A.D. 1984-Apr-25 00:00:00.0000,      54.185559, -3.005417585267486E+00,  3.725234835322075E-01, -7.050577295979647E-03, -1.363872246325963E-03, -1.006937447876403E-02, -7.689747797050048E-04,
2445820.500000000, A.D. 1984-Apr-30 00:00:00.0000,      54.185501, -3.011836558296861E+00,  3.221304350822874E-01, -1.089436338858102E-02, -1.203679514159210E-03, -1.008739590282736E-02, -7.685056178602973E-04,
2445825.500000000, A.D. 1984-May-05 00:00:00.0000,      54.185433, -3.017454048368323E+00,  2.716540157231866E-01, -1.473529346830907E-02, -1.043287555618706E-03, -1.010272263293897E-02, -7.678324550430336E-04,
2445830.500000000, A.D. 1984-May-10 00:00:00.0000,      54.185353, -3.022269186681270E+00,  2.211077011282793E-01, -1.857234880723047E-02, -8.827472910806261E-04, -1.011535397526028E-02, -7.669558159255343E-04,
2445835.500000000, A.D. 1984-May-15 00:00:00.0000,      54.185262, -3.026281358829826E+00,  1.705049676303013E-01, -2.240451350868256E-02, -7.221095530270596E-04, -1.012529035899564E-02, -7.658763082215518E-04,
2445840.500000000, A.D. 1984-May-20 00:00:00.0000,      54.185162, -3.029490204288066E+00,  1.198592866202917E-01, -2.623077492058605E-02, -5.614250559605476E-04, -1.013253333056793E-02, -7.645946219162378E-04,
2445845.500000000, A.D. 1984-May-25 00:00:00.0000,      54.185055, -3.031895615745433E+00,  6.918411897806696E-02, -3.005012404472786E-02, -4.007443665833579E-04, -1.013708554683397E-02, -7.631115284249730E-04,
2445850.500000000, A.D. 1984-May-30 00:00:00.0000,      54.184942, -3.033497738293850E+00,  1.849290953896901E-02, -3.386155594166611E-02, -2.401178742936234E-04, -1.013895076736230E-02, -7.614278796836382E-04,
2445855.500000000, A.D. 1984-Jun-04 00:00:00.0000,      54.184822, -3.034296968468172E+00, -3.220091839846066E-02, -3.766407013091888E-02, -7.959576204414251E-05, -1.013813384578731E-02, -7.595446071720629E-04,
